[{"OBJECT_NAME":"SHIJIAN-20 (SJ-20)","OBJECT_ID":"2019-097A","EPOCH":"2026-03-05T16:03:59.767200","MEAN_MOTION":1.00081873,"ECCENTRICITY":4.94e-5,"INCLINATION":4.6528,"RA_OF_ASC_NODE":76.3334,"ARG_OF_PERICENTER":32.1904,"MEAN_ANOMALY":11.0867,"EPHEMERIS_TYPE":0,"CLASSIFICATION_TYPE":"U","NORAD_CAT_ID":44910,"ELEMENT_SET_NO":999,"REV_AT_EPOCH":2266,"BSTAR":0,"MEAN_MOTION_DOT":-5.3e-7,"MEAN_MOTION_DDOT":0},{"OBJECT_NAME":"TJS-5","OBJECT_ID":"2020-002A","EPOCH":"2026-03-05T18:29:02.655168","MEAN_MOTION":1.00271997,"ECCENTRICITY":0.0004285,"INCLINATION":0.2758,"RA_OF_ASC_NODE":269.7342,"ARG_OF_PERICENTER":122.494,"MEAN_ANOMALY":156.0597,"EPHEMERIS_TYPE":0,"CLASSIFICATION_TYPE":"U","NORAD_CAT_ID":44978,"ELEMENT_SET_NO":999,"REV_AT_EPOCH":2266,"BSTAR":0,"MEAN_MOTION_DOT":-3.49e-6,"MEAN_MOTION_DDOT":0},{"OBJECT_NAME":"GSAT-30","OBJECT_ID":"2020-005A","EPOCH":"2026-03-05T17:19:38.654688","MEAN_MOTION":1.00272837,"ECCENTRICITY":7.33e-5,"INCLINATION":0.0156,"RA_OF_ASC_NODE":203.5326,"ARG_OF_PERICENTER":217.5618,"MEAN_ANOMALY":85.2425,"EPHEMERIS_TYPE":0,"CLASSIFICATION_TYPE":"U","NORAD_CAT_ID":45026,"ELEMENT_SET_NO":999,"REV_AT_EPOCH":2247,"BSTAR":0,"MEAN_MOTION_DOT":-1.71e-6,"MEAN_MOTION_DDOT":0},{"OBJECT_NAME":"EUTELSAT KONNECT","OBJECT_ID":"2020-005B","EPOCH":"2026-03-05T15:44:31.634016","MEAN_MOTION":1.00271606,"ECCENTRICITY":0.0001062,"INCLINATION":0.0666,"RA_OF_ASC_NODE":98.0067,"ARG_OF_PERICENTER":226.6184,"MEAN_ANOMALY":82.0767,"EPHEMERIS_TYPE":0,"CLASSIFICATION_TYPE":"U","NORAD_CAT_ID":45027,"ELEMENT_SET_NO":999,"REV_AT_EPOCH":2329,"BSTAR":0,"MEAN_MOTION_DOT":4.2e-7,"MEAN_MOTION_DDOT":0},{"OBJECT_NAME":"JCSAT-17","OBJECT_ID":"2020-013A","EPOCH":"2026-03-05T14:38:37.951872","MEAN_MOTION":1.00272811,"ECCENTRICITY":0.000474,"INCLINATION":5.3949,"RA_OF_ASC_NODE":355.8492,"ARG_OF_PERICENTER":351.6975,"MEAN_ANOMALY":171.4168,"EPHEMERIS_TYPE":0,"CLASSIFICATION_TYPE":"U","NORAD_CAT_ID":45245,"ELEMENT_SET_NO":999,"REV_AT_EPOCH":2219,"BSTAR":0,"MEAN_MOTION_DOT":-3.22e-6,"MEAN_MOTION_DDOT":0},{"OBJECT_NAME":"GEO-KOMPSAT-2B","OBJECT_ID":"2020-013B","EPOCH":"2026-03-04T17:32:38.522688","MEAN_MOTION":1.00269583,"ECCENTRICITY":0.00017835,"INCLINATION":0.0424,"RA_OF_ASC_NODE":308.9242,"ARG_OF_PERICENTER":13.3436,"MEAN_ANOMALY":231.5985,"EPHEMERIS_TYPE":0,"CLASSIFICATION_TYPE":"U","NORAD_CAT_ID":45246,"ELEMENT_SET_NO":999,"REV_AT_EPOCH":2223,"BSTAR":0,"MEAN_MOTION_DOT":-3.55e-6,"MEAN_MOTION_DDOT":0},{"OBJECT_NAME":"BEIDOU-3 G2","OBJECT_ID":"2020-017A","EPOCH":"2026-03-05T19:30:47.438784","MEAN_MOTION":1.00271514,"ECCENTRICITY":0.0002799,"INCLINATION":2.6571,"RA_OF_ASC_NODE":45.6818,"ARG_OF_PERICENTER":312.9867,"MEAN_ANOMALY":177.5975,"EPHEMERIS_TYPE":0,"CLASSIFICATION_TYPE":"U","NORAD_CAT_ID":45344,"ELEMENT_SET_NO":999,"REV_AT_EPOCH":2222,"BSTAR":0,"MEAN_MOTION_DOT":-1.45e-6,"MEAN_MOTION_DDOT":0},{"OBJECT_NAME":"BEIDOU-3 G3","OBJECT_ID":"2020-040A","EPOCH":"2026-03-05T21:22:14.772864","MEAN_MOTION":1.00274924,"ECCENTRICITY":0.0004591,"INCLINATION":2.1933,"RA_OF_ASC_NODE":67.1674,"ARG_OF_PERICENTER":320.4944,"MEAN_ANOMALY":207.0151,"EPHEMERIS_TYPE":0,"CLASSIFICATION_TYPE":"U","NORAD_CAT_ID":45807,"ELEMENT_SET_NO":999,"REV_AT_EPOCH":2103,"BSTAR":0,"MEAN_MOTION_DOT":-3.59e-6,"MEAN_MOTION_DDOT":0},{"OBJECT_NAME":"APSTAR-6D","OBJECT_ID":"2020-045A","EPOCH":"2026-03-05T19:46:11.123040","MEAN_MOTION":1.00270077,"ECCENTRICITY":0.000272,"INCLINATION":0.0414,"RA_OF_ASC_NODE":104.815,"ARG_OF_PERICENTER":338.6988,"MEAN_ANOMALY":150.5969,"EPHEMERIS_TYPE":0,"CLASSIFICATION_TYPE":"U","NORAD_CAT_ID":45863,"ELEMENT_SET_NO":999,"REV_AT_EPOCH":2082,"BSTAR":0,"MEAN_MOTION_DOT":-3.24e-6,"MEAN_MOTION_DDOT":0},{"OBJECT_NAME":"KOREASAT 116","OBJECT_ID":"2020-048A","EPOCH":"2026-03-05T18:27:03.931200","MEAN_MOTION":1.00269222,"ECCENTRICITY":0.0001057,"INCLINATION":0.02,"RA_OF_ASC_NODE":146.3027,"ARG_OF_PERICENTER":213.9079,"MEAN_ANOMALY":196.2833,"EPHEMERIS_TYPE":0,"CLASSIFICATION_TYPE":"U","NORAD_CAT_ID":45920,"ELEMENT_SET_NO":999,"REV_AT_EPOCH":2060,"BSTAR":0,"MEAN_MOTION_DOT":0,"MEAN_MOTION_DDOT":0},{"OBJECT_NAME":"EXPRESS 103","OBJECT_ID":"2020-053A","EPOCH":"2026-03-05T14:27:24.030144","MEAN_MOTION":1.00272512,"ECCENTRICITY":4.91e-5,"INCLINATION":0.0297,"RA_OF_ASC_NODE":269.7929,"ARG_OF_PERICENTER":6.7622,"MEAN_ANOMALY":200.1219,"EPHEMERIS_TYPE":0,"CLASSIFICATION_TYPE":"U","NORAD_CAT_ID":45985,"ELEMENT_SET_NO":999,"REV_AT_EPOCH":2061,"BSTAR":0,"MEAN_MOTION_DOT":-2.88e-6,"MEAN_MOTION_DDOT":0},{"OBJECT_NAME":"EXPRESS 80","OBJECT_ID":"2020-053B","EPOCH":"2026-03-05T07:47:34.976832","MEAN_MOTION":1.00271999,"ECCENTRICITY":0.0001624,"INCLINATION":0.0242,"RA_OF_ASC_NODE":235.0073,"ARG_OF_PERICENTER":46.4156,"MEAN_ANOMALY":78.529,"EPHEMERIS_TYPE":0,"CLASSIFICATION_TYPE":"U","NORAD_CAT_ID":45986,"ELEMENT_SET_NO":999,"REV_AT_EPOCH":2060,"BSTAR":0,"MEAN_MOTION_DOT":-1.44e-6,"MEAN_MOTION_DDOT":0},{"OBJECT_NAME":"BSAT-4B","OBJECT_ID":"2020-056A","EPOCH":"2026-03-05T18:48:14.102784","MEAN_MOTION":1.00272242,"ECCENTRICITY":0.0001666,"INCLINATION":0.0323,"RA_OF_ASC_NODE":192.8986,"ARG_OF_PERICENTER":248.6679,"MEAN_ANOMALY":113.8355,"EPHEMERIS_TYPE":0,"CLASSIFICATION_TYPE":"U","NORAD_CAT_ID":46112,"ELEMENT_SET_NO":999,"REV_AT_EPOCH":2035,"BSTAR":0,"MEAN_MOTION_DOT":-3.57e-6,"MEAN_MOTION_DDOT":0},{"OBJECT_NAME":"MEV-2","OBJECT_ID":"2020-056B","EPOCH":"2026-03-05T15:42:16.850016","MEAN_MOTION":1.00270128,"ECCENTRICITY":0.0001192,"INCLINATION":0.0166,"RA_OF_ASC_NODE":126.2299,"ARG_OF_PERICENTER":261.4523,"MEAN_ANOMALY":10.2504,"EPHEMERIS_TYPE":0,"CLASSIFICATION_TYPE":"U","NORAD_CAT_ID":46113,"ELEMENT_SET_NO":999,"REV_AT_EPOCH":7951,"BSTAR":0,"MEAN_MOTION_DOT":-1.9e-7,"MEAN_MOTION_DDOT":0},{"OBJECT_NAME":"GALAXY 30 (G-30)","OBJECT_ID":"2020-056C","EPOCH":"2026-03-05T15:06:50.247936","MEAN_MOTION":1.00271232,"ECCENTRICITY":0.0002069,"INCLINATION":0.0225,"RA_OF_ASC_NODE":160.3254,"ARG_OF_PERICENTER":192.9294,"MEAN_ANOMALY":271.8285,"EPHEMERIS_TYPE":0,"CLASSIFICATION_TYPE":"U","NORAD_CAT_ID":46114,"ELEMENT_SET_NO":999,"REV_AT_EPOCH":2025,"BSTAR":0,"MEAN_MOTION_DOT":0,"MEAN_MOTION_DDOT":0},{"OBJECT_NAME":"GAOFEN-13 01","OBJECT_ID":"2020-071A","EPOCH":"2026-03-05T14:33:30.943296","MEAN_MOTION":1.00274371,"ECCENTRICITY":0.0042968,"INCLINATION":0.2534,"RA_OF_ASC_NODE":85.7352,"ARG_OF_PERICENTER":119.9178,"MEAN_ANOMALY":294.3044,"EPHEMERIS_TYPE":0,"CLASSIFICATION_TYPE":"U","NORAD_CAT_ID":46610,"ELEMENT_SET_NO":999,"REV_AT_EPOCH":1988,"BSTAR":0,"MEAN_MOTION_DOT":-3.7e-6,"MEAN_MOTION_DDOT":0},{"OBJECT_NAME":"TIANTONG-1 2","OBJECT_ID":"2020-082A","EPOCH":"2026-03-05T15:13:38.761824","MEAN_MOTION":1.00271044,"ECCENTRICITY":0.0003497,"INCLINATION":0.9485,"RA_OF_ASC_NODE":314.9791,"ARG_OF_PERICENTER":29.8108,"MEAN_ANOMALY":171.9527,"EPHEMERIS_TYPE":0,"CLASSIFICATION_TYPE":"U","NORAD_CAT_ID":46916,"ELEMENT_SET_NO":999,"REV_AT_EPOCH":1961,"BSTAR":0,"MEAN_MOTION_DOT":-3.63e-6,"MEAN_MOTION_DDOT":0},{"OBJECT_NAME":"LUCAS (JDRS-1)","OBJECT_ID":"2020-089A","EPOCH":"2026-03-05T16:08:29.336928","MEAN_MOTION":1.00273056,"ECCENTRICITY":0.0002783,"INCLINATION":0.0582,"RA_OF_ASC_NODE":275.3704,"ARG_OF_PERICENTER":67.1572,"MEAN_ANOMALY":153.7618,"EPHEMERIS_TYPE":0,"CLASSIFICATION_TYPE":"U","NORAD_CAT_ID":47202,"ELEMENT_SET_NO":999,"REV_AT_EPOCH":1938,"BSTAR":0,"MEAN_MOTION_DOT":-2.43e-6,"MEAN_MOTION_DDOT":0},{"OBJECT_NAME":"SXM-7","OBJECT_ID":"2020-096A","EPOCH":"2026-03-05T13:35:36.496032","MEAN_MOTION":1.0027333,"ECCENTRICITY":0.0004544,"INCLINATION":0.0216,"RA_OF_ASC_NODE":119.6102,"ARG_OF_PERICENTER":6.988,"MEAN_ANOMALY":155.4133,"EPHEMERIS_TYPE":0,"CLASSIFICATION_TYPE":"U","NORAD_CAT_ID":47240,"ELEMENT_SET_NO":999,"REV_AT_EPOCH":640,"BSTAR":0,"MEAN_MOTION_DOT":-2.13e-6,"MEAN_MOTION_DDOT":0},{"OBJECT_NAME":"CMS-01","OBJECT_ID":"2020-099A","EPOCH":"2026-03-05T17:19:38.654688","MEAN_MOTION":1.00272271,"ECCENTRICITY":0.0006283,"INCLINATION":0.0214,"RA_OF_ASC_NODE":126.6342,"ARG_OF_PERICENTER":163.444,"MEAN_ANOMALY":216.271,"EPHEMERIS_TYPE":0,"CLASSIFICATION_TYPE":"U","NORAD_CAT_ID":47256,"ELEMENT_SET_NO":999,"REV_AT_EPOCH":1916,"BSTAR":0,"MEAN_MOTION_DOT":-1.71e-6,"MEAN_MOTION_DDOT":0},{"OBJECT_NAME":"TURKSAT 5A","OBJECT_ID":"2021-001A","EPOCH":"2026-03-05T16:12:28.448928","MEAN_MOTION":1.00272446,"ECCENTRICITY":3.9e-6,"INCLINATION":0.0203,"RA_OF_ASC_NODE":103.3663,"ARG_OF_PERICENTER":348.933,"MEAN_ANOMALY":345.1346,"EPHEMERIS_TYPE":0,"CLASSIFICATION_TYPE":"U","NORAD_CAT_ID":47306,"ELEMENT_SET_NO":999,"REV_AT_EPOCH":1892,"BSTAR":0,"MEAN_MOTION_DOT":1.47e-6,"MEAN_MOTION_DDOT":0},{"OBJECT_NAME":"TIANTONG-1 3","OBJECT_ID":"2021-003A","EPOCH":"2026-03-05T16:05:44.599776","MEAN_MOTION":1.00274306,"ECCENTRICITY":0.0003442,"INCLINATION":1.8511,"RA_OF_ASC_NODE":333.1758,"ARG_OF_PERICENTER":7.6225,"MEAN_ANOMALY":145.5002,"EPHEMERIS_TYPE":0,"CLASSIFICATION_TYPE":"U","NORAD_CAT_ID":47321,"ELEMENT_SET_NO":999,"REV_AT_EPOCH":1892,"BSTAR":0,"MEAN_MOTION_DOT":-1.62e-6,"MEAN_MOTION_DDOT":0},{"OBJECT_NAME":"TJS-6","OBJECT_ID":"2021-010A","EPOCH":"2026-03-05T14:50:44.291616","MEAN_MOTION":1.002712,"ECCENTRICITY":0.0003346,"INCLINATION":0.3331,"RA_OF_ASC_NODE":90.8115,"ARG_OF_PERICENTER":285.019,"MEAN_ANOMALY":188.6771,"EPHEMERIS_TYPE":0,"CLASSIFICATION_TYPE":"U","NORAD_CAT_ID":47613,"ELEMENT_SET_NO":999,"REV_AT_EPOCH":1877,"BSTAR":0,"MEAN_MOTION_DOT":3.5e-7,"MEAN_MOTION_DDOT":0},{"OBJECT_NAME":"SHIYAN-9 (SY-9)","OBJECT_ID":"2021-019A","EPOCH":"2026-02-13T08:49:37.634880","MEAN_MOTION":1.00262375,"ECCENTRICITY":0.0016854,"INCLINATION":16.7978,"RA_OF_ASC_NODE":304.0404,"ARG_OF_PERICENTER":23.4452,"MEAN_ANOMALY":94.4865,"EPHEMERIS_TYPE":0,"CLASSIFICATION_TYPE":"U","NORAD_CAT_ID":47851,"ELEMENT_SET_NO":999,"REV_AT_EPOCH":2289,"BSTAR":0,"MEAN_MOTION_DOT":-2.21e-6,"MEAN_MOTION_DDOT":0}]
